      2.10          N: GNSS NAV DATA                        RINEX VERSION / TYPE
fic2rin                                 09/18/2018 00:20:30 PGM / RUN BY / DATE
                                                            END OF HEADER
 7 18  9 17 10  0  0.0 1.226523891091e-04-6.593836587854e-12 0.000000000000e+00
    3.800000000000e+01 4.031250000000e+01 4.534117435619e-09-1.160680836707e+00
    2.183020114899e-06 1.208597829100e-02 7.636845111847e-06 5.153643789291e+03
    1.224000000000e+05 2.998858690262e-07-1.598523102389e+00 3.352761268616e-08
    9.572688057453e-01 2.262500000000e+02-2.490401883806e+00-8.028905864728e-09
   -3.107272287506e-11 1.000000000000e+00 2.019000000000e+03 0.000000000000e+00
    2.400000000000e+00 0.000000000000e+00-1.117587089539e-08 3.800000000000e+01
    1.152060000000e+05 4.000000000000e+00
 8 18  9 17 10  0  0.0-1.154271885753e-04-1.250555214938e-12 0.000000000000e+00
    9.800000000000e+01-2.634375000000e+01 4.527331438670e-09 2.048910708372e+00
   -1.199543476105e-06 3.529893350787e-03 4.712492227554e-06 5.153628051758e+03
    1.224000000000e+05 1.396983861923e-07 4.658021206994e-01 5.401670932770e-08
    9.698355529265e-01 2.914062500000e+02-4.061702150769e-01-8.198198630737e-09
   -6.857428496565e-11 1.000000000000e+00 2.019000000000e+03 0.000000000000e+00
    3.400000000000e+00 0.000000000000e+00 5.122274160385e-09 9.800000000000e+01
    1.152060000000e+05 4.000000000000e+00
 5 18  9 17 10  0  0.0-1.883134245872e-06 4.547473508865e-13 0.000000000000e+00
    9.500000000000e+01-1.431250000000e+01 4.828415408597e-09 2.415869666006e+00
   -8.530914783478e-07 5.629081279039e-03 8.299946784973e-06 5.153781406403e+03
    1.224000000000e+05-1.862645149231e-08 2.550952023608e+00-4.842877388000e-08
    9.486456804775e-01 2.150312500000e+02 6.834769314547e-01-8.097837307428e-09
    1.628639267934e-10 1.000000000000e+00 2.019000000000e+03 0.000000000000e+00
    2.400000000000e+00 0.000000000000e+00-1.117587089539e-08 9.500000000000e+01
    1.152060000000e+05 4.000000000000e+00
 4 18  9 17 10  0  0.0 1.002433709800e-04 3.979039320257e-12 0.000000000000e+00
    2.700000000000e+01 5.609375000000e+01 5.452369970237e-09 2.905371770568e+00
    2.793967723846e-06 9.789674193598e-03 6.319954991341e-06 5.153732410431e+03
    1.224000000000e+05-4.097819328308e-08-5.391049197010e-01-1.695007085800e-07
    9.780216094743e-01 2.674687500000e+02 9.259269123439e-01-7.810325331400e-09
    9.357532635937e-11 1.000000000000e+00 2.019000000000e+03 0.000000000000e+00
    3.400000000000e+00 6.300000000000e+01-1.955777406693e-08 2.700000000000e+01
    1.152060000000e+05 4.000000000000e+00
20 18  9 17 10  0  0.0 5.159336142242e-04 5.684341886081e-13 0.000000000000e+00
    3.000000000000e+00-1.771875000000e+01 5.157000524057e-09-6.415386703636e-01
   -8.400529623032e-07 4.271902376786e-03 8.333474397659e-06 5.153669855118e+03
    1.224000000000e+05-1.154839992523e-07 2.461075983682e+00-9.313225746155e-09
    9.291707605604e-01 2.041875000000e+02 2.104728578828e+00-8.293916903501e-09
    2.200091642648e-10 1.000000000000e+00 2.019000000000e+03 0.000000000000e+00
    2.400000000000e+00 0.000000000000e+00-8.381903171539e-09 3.000000000000e+00
    1.152060000000e+05 4.000000000000e+00
10 18  9 17 10  0  0.0 1.813787966967e-04-2.387423592154e-12 0.000000000000e+00
    2.800000000000e+01-1.481250000000e+01 4.415541067866e-09-2.499149689193e+00
   -7.562339305878e-07 3.792320494540e-03 8.441507816315e-06 5.153661626816e+03
    1.224000000000e+05-9.313225746155e-09 2.570926794838e+00-1.676380634308e-08
    9.618438231017e-01 2.173125000000e+02-2.801269463820e+00-7.847112578022e-09
    2.242950570751e-10 1.000000000000e+00 2.019000000000e+03 0.000000000000e+00
    2.400000000000e+00 0.000000000000e+00 1.862645149231e-09 2.800000000000e+01
    1.152060000000e+05 4.000000000000e+00
 9 18  9 17 10  0  0.0 5.060089752078e-04-2.046363078989e-12 0.000000000000e+00
    6.000000000000e+01 5.125000000000e+00 4.699124308818e-09 2.092599427017e+00
    2.998858690262e-07 1.029572333209e-03 7.553026080132e-06 5.153542594910e+03
    1.224000000000e+05 2.421438694000e-08-2.675987990258e+00 1.862645149231e-08
    9.528828427552e-01 2.290625000000e+02 1.738399379632e+00-8.097837307428e-09
   -4.000166622996e-11 1.000000000000e+00 2.019000000000e+03 0.000000000000e+00
    2.400000000000e+00 0.000000000000e+00 9.313225746155e-10 6.000000000000e+01
    1.152060000000e+05 4.000000000000e+00
24 18  9 17 10  0  0.0-5.549797788262e-05-5.684341886081e-13 0.000000000000e+00
    2.100000000000e+01 4.081250000000e+01 4.999851121011e-09-1.450261146112e-01
    2.171844244003e-06 7.255005883053e-03 8.270144462585e-06 5.153630758286e+03
    1.224000000000e+05 7.636845111847e-08-1.660220633711e+00 5.029141902924e-08
    9.403736540858e-01 2.110000000000e+02 5.323745983046e-01-8.351062140973e-09
   -1.550064566411e-10 1.000000000000e+00 2.019000000000e+03 0.000000000000e+00
    2.400000000000e+00 0.000000000000e+00 2.793967723846e-09 2.100000000000e+01
    1.152060000000e+05 4.000000000000e+00
18 18  9 17 10  0  0.0 5.823047831655e-05 4.206412995700e-12 0.000000000000e+00
    1.300000000000e+01-4.675000000000e+01 4.849844872649e-09-7.427699725851e-01
   -2.378597855568e-06 1.497348782141e-02 7.491558790207e-06 5.153631786346e+03
    1.224000000000e+05-1.676380634308e-07 1.481673664810e+00 1.750886440277e-07
    9.507073489828e-01 2.305312500000e+02 1.348993636668e+00-8.466066931384e-09
   -2.321525272275e-11 1.000000000000e+00 2.019000000000e+03 0.000000000000e+00
    2.400000000000e+00 0.000000000000e+00-6.519258022308e-09 1.300000000000e+01
    1.152060000000e+05 4.000000000000e+00
15 18  9 17 10  0  0.0-3.456617705524e-04 1.023181539495e-12 0.000000000000e+00
    3.600000000000e+01 1.037500000000e+01 5.361651905752e-09 7.560440274913e-01
    7.152557373047e-07 1.072178524919e-02 7.167458534241e-06 5.153557720184e+03
    1.224000000000e+05-1.452863216400e-07-2.749548169215e+00 1.359730958939e-07
    9.284479561441e-01 2.246875000000e+02 7.021724510439e-01-8.502497020272e-09
   -1.585780339831e-10 1.000000000000e+00 2.019000000000e+03 0.000000000000e+00
    2.400000000000e+00 0.000000000000e+00-1.071020960808e-08 3.600000000000e+01
    1.152060000000e+05 4.000000000000e+00
11 18  9 17 10  0  0.0-7.173162885010e-04 2.842170943040e-12 0.000000000000e+00
    3.600000000000e+01-4.603125000000e+01 5.914174920553e-09-1.163642079872e+00
   -2.289190888405e-06 1.702064182609e-02 6.325542926788e-06 5.153658893585e+03
    1.224000000000e+05-3.725290298462e-07 1.096771270846e+00 9.499490261078e-08
    9.064767128165e-01 2.297500000000e+02 1.816390054268e+00-9.022518681261e-09
   -3.250135381184e-11 1.000000000000e+00 2.019000000000e+03 0.000000000000e+00
    2.400000000000e+00 0.000000000000e+00-1.210719347000e-08 3.600000000000e+01
    1.152060000000e+05 4.000000000000e+00
19 18  9 17 10  0  0.0-4.019117914140e-04 3.524291969370e-12 0.000000000000e+00
    3.000000000000e+01-3.412500000000e+01 4.187674433449e-09-1.853829573089e+00
   -1.603737473488e-06 9.674283792265e-03 5.058944225311e-06 5.153603796005e+03
    1.224000000000e+05 9.126961231232e-08 5.765817999863e-01 9.499490261078e-08
    9.809633680332e-01 2.896562500000e+02 1.286820930537e+00-7.924258648609e-09
    4.643050544549e-12 1.000000000000e+00 2.019000000000e+03 0.000000000000e+00
    2.400000000000e+00 0.000000000000e+00-1.536682248116e-08 3.000000000000e+01
    1.152060000000e+05 4.000000000000e+00
22 18  9 17 10  0  0.0-5.216058343649e-04-1.091393642128e-11 0.000000000000e+00
    6.600000000000e+01-1.693750000000e+01 5.363437694423e-09 9.270469955713e-01
   -1.020729541779e-06 7.082175579853e-03 8.126720786095e-06 5.153712034225e+03
    1.224000000000e+05-9.499490261078e-08 2.510589500839e+00-1.173466444016e-07
    9.259344200395e-01 2.089062500000e+02-1.483971411720e+00-8.505354282146e-09
    8.857511808063e-11 1.000000000000e+00 2.019000000000e+03 0.000000000000e+00
    2.400000000000e+00 0.000000000000e+00-1.816079020500e-08 6.600000000000e+01
    1.152060000000e+05 4.000000000000e+00
25 18  9 17 10  0  0.0-6.482857279480e-04-5.684341886081e-12 0.000000000000e+00
    3.400000000000e+01 6.228125000000e+01 4.366253300547e-09-2.163327428757e+00
    3.129243850708e-06 7.465104106814e-03 5.995854735374e-06 5.153593526840e+03
    1.224000000000e+05 1.136213541031e-07-5.645480655444e-01-7.264316082001e-08
    9.731867998108e-01 2.702812500000e+02 8.623240574983e-01-7.996404510916e-09
    2.000083311498e-10 1.000000000000e+00 2.019000000000e+03 0.000000000000e+00
    2.400000000000e+00 0.000000000000e+00 5.587935447693e-09 3.400000000000e+01
    1.152060000000e+05 4.000000000000e+00
26 18  9 17 10  0  0.0-1.774495467544e-05 1.159605744760e-11 0.000000000000e+00
    3.600000000000e+01 5.462500000000e+01 4.775913221670e-09-2.690830824385e+00
    2.883374691010e-06 2.927525434643e-03 6.407499313354e-06 5.153720447540e+03
    1.224000000000e+05-9.872019290924e-08-5.885230823944e-01-2.980232238770e-08
    9.546294762409e-01 2.552500000000e+02 6.105272677113e-02-8.182840848166e-09
    9.821837690392e-11 1.000000000000e+00 2.019000000000e+03 0.000000000000e+00
    2.400000000000e+00 0.000000000000e+00 7.450580596924e-09 3.600000000000e+01
    1.152060000000e+05 4.000000000000e+00
14 18  9 17 10  0  0.0-9.725661948323e-05 2.273736754432e-13 0.000000000000e+00
    8.700000000000e+01 4.875000000000e+00 4.620549607295e-09 1.400842870774e+00
    2.179294824600e-07 1.004947803449e-02 7.430091500282e-06 5.153623031616e+03
    1.224000000000e+05-2.160668373108e-07-2.585265365491e+00-1.024454832077e-07
    9.610320410820e-01 2.357812500000e+02-1.941997967759e+00-8.148910863418e-09
   -1.014327965117e-10 1.000000000000e+00 2.019000000000e+03 0.000000000000e+00
    2.400000000000e+00 0.000000000000e+00-9.778887033463e-09 8.700000000000e+01
    1.152060000000e+05 4.000000000000e+00
